STARLINK-36309          
1 68325U 26059E   26092.71329767  .00380392  00000+0  18320-2 0  9997
2 68325  53.1599 242.4582 0000912   9.8084 350.2956 15.81051117  1771
STARLINK-37206          
1 68326U 26059F   26093.40797779  .00633993  00000+0  29391-2 0  9995
2 68326  53.1595 238.9680 0002876 183.4381 176.6623 15.81219036  1886
STARLINK-37199          
1 68327U 26059G   26093.40722719  .00725978  00000+0  33280-2 0  9995
2 68327  53.1596 238.9632 0001369 151.3736 208.7362 15.81221019  1880
STARLINK-36245          
1 68328U 26059H   26093.53217972  .00578261  00000+0  27503-2 0  9992
2 68328  53.1599 238.3193 0001112  53.5678 306.5447 15.80802955  1901
STARLINK-37204          
1 68329U 26059J   26093.53292873  .00571880  00000+0  27244-2 0  9998
2 68329  53.1596 238.3249 0001359  61.9136 298.2024 15.80784618  1909
STARLINK-37001          
1 68330U 26059K   26093.46819837  .00297121  00000+0  14582-2 0  9991
2 68330  53.1599 238.6310 0000820  99.7271 260.3844 15.80865083  1891
STARLINK-36932          
1 68331U 26059L   26093.46745130  .00379744  00000+0  18410-2 0  9992
2 68331  53.1595 238.6253 0002459  36.1791 323.9398 15.80910723  1898
STARLINK-37205          
1 68332U 26059M   26093.52992457  .00566893  00000+0  26987-2 0  9997
2 68332  53.1598 238.3041 0001959  45.3380 314.7803 15.80814627  1901
STARLINK-37180          
1 68333U 26059N   26093.52917410  .00237957  00000+0  11779-2 0  9993
2 68333  53.1604 238.2989 0000954 105.0057 255.1071 15.80842330  1906
STARLINK-37191          
1 68334U 26059P   26093.52842323  .00500530  00000+0  24013-2 0  9999
2 68334  53.1600 238.2941 0001196 152.6365 207.4721 15.80818232  1906
STARLINK-37217          
1 68335U 26059Q   26093.46444666  .00175898  00000+0  87977-3 0  9995
2 68335  53.1603 238.6056 0000841 103.6260 256.4856 15.80796664  1892
STARLINK-37143          
1 68336U 26059R   26093.46369653  .00338842  00000+0  16530-2 0  9994
2 68336  53.1592 238.6009 0001101 123.8127 236.3001 15.80883348  1899
