CCSDS_OMM_VERS = 2.0
CREATION_DATE  = 
ORIGINATOR     = 

OBJECT_NAME    = STARLINK-36309
OBJECT_ID      = 2026-059E
CENTER_NAME    = EARTH
REF_FRAME      = TEME
TIME_SYSTEM    = UTC
MEAN_ELEMENT_THEORY = SGP/SGP4

EPOCH          = 2026-04-02T17:07:08.918688
MEAN_MOTION    = 15.81051117
ECCENTRICITY   = .00009126
INCLINATION    = 53.1599
RA_OF_ASC_NODE = 242.4582
ARG_OF_PERICENTER = 9.8084
MEAN_ANOMALY   = 350.2956

EPHEMERIS_TYPE = 0
CLASSIFICATION_TYPE = U
NORAD_CAT_ID   = 68325
ELEMENT_SET_NO = 999
REV_AT_EPOCH   = 177
BSTAR          = .18320332E-2
MEAN_MOTION_DOT = .380392E-2
MEAN_MOTION_DDOT = 0

CCSDS_OMM_VERS = 2.0
CREATION_DATE  = 
ORIGINATOR     = 

OBJECT_NAME    = STARLINK-37206
OBJECT_ID      = 2026-059F
CENTER_NAME    = EARTH
REF_FRAME      = TEME
TIME_SYSTEM    = UTC
MEAN_ELEMENT_THEORY = SGP/SGP4

EPOCH          = 2026-04-03T09:47:29.281056
MEAN_MOTION    = 15.81219036
ECCENTRICITY   = .0002876
INCLINATION    = 53.1595
RA_OF_ASC_NODE = 238.9680
ARG_OF_PERICENTER = 183.4381
MEAN_ANOMALY   = 176.6623

EPHEMERIS_TYPE = 0
CLASSIFICATION_TYPE = U
NORAD_CAT_ID   = 68326
ELEMENT_SET_NO = 999
REV_AT_EPOCH   = 188
BSTAR          = .29391E-2
MEAN_MOTION_DOT = .633993E-2
MEAN_MOTION_DDOT = 0

CCSDS_OMM_VERS = 2.0
CREATION_DATE  = 
ORIGINATOR     = 

OBJECT_NAME    = STARLINK-37199
OBJECT_ID      = 2026-059G
CENTER_NAME    = EARTH
REF_FRAME      = TEME
TIME_SYSTEM    = UTC
MEAN_ELEMENT_THEORY = SGP/SGP4

EPOCH          = 2026-04-03T09:46:24.429216
MEAN_MOTION    = 15.81221019
ECCENTRICITY   = .0001369
INCLINATION    = 53.1596
RA_OF_ASC_NODE = 238.9632
ARG_OF_PERICENTER = 151.3736
MEAN_ANOMALY   = 208.7362

EPHEMERIS_TYPE = 0
CLASSIFICATION_TYPE = U
NORAD_CAT_ID   = 68327
ELEMENT_SET_NO = 999
REV_AT_EPOCH   = 188
BSTAR          = .3328E-2
MEAN_MOTION_DOT = .725978E-2
MEAN_MOTION_DDOT = 0

CCSDS_OMM_VERS = 2.0
CREATION_DATE  = 
ORIGINATOR     = 

OBJECT_NAME    = STARLINK-36245
OBJECT_ID      = 2026-059H
CENTER_NAME    = EARTH
REF_FRAME      = TEME
TIME_SYSTEM    = UTC
MEAN_ELEMENT_THEORY = SGP/SGP4

EPOCH          = 2026-04-03T12:46:20.327808
MEAN_MOTION    = 15.80802955
ECCENTRICITY   = .0001112
INCLINATION    = 53.1599
RA_OF_ASC_NODE = 238.3193
ARG_OF_PERICENTER = 53.5678
MEAN_ANOMALY   = 306.5447

EPHEMERIS_TYPE = 0
CLASSIFICATION_TYPE = U
NORAD_CAT_ID   = 68328
ELEMENT_SET_NO = 999
REV_AT_EPOCH   = 190
BSTAR          = .27503E-2
MEAN_MOTION_DOT = .578261E-2
MEAN_MOTION_DDOT = 0

CCSDS_OMM_VERS = 2.0
CREATION_DATE  = 
ORIGINATOR     = 

OBJECT_NAME    = STARLINK-37204
OBJECT_ID      = 2026-059J
CENTER_NAME    = EARTH
REF_FRAME      = TEME
TIME_SYSTEM    = UTC
MEAN_ELEMENT_THEORY = SGP/SGP4

EPOCH          = 2026-04-03T12:47:25.042272
MEAN_MOTION    = 15.80784618
ECCENTRICITY   = .0001359
INCLINATION    = 53.1596
RA_OF_ASC_NODE = 238.3249
ARG_OF_PERICENTER = 61.9136
MEAN_ANOMALY   = 298.2024

EPHEMERIS_TYPE = 0
CLASSIFICATION_TYPE = U
NORAD_CAT_ID   = 68329
ELEMENT_SET_NO = 999
REV_AT_EPOCH   = 190
BSTAR          = .27244E-2
MEAN_MOTION_DOT = .57188E-2
MEAN_MOTION_DDOT = 0

CCSDS_OMM_VERS = 2.0
CREATION_DATE  = 
ORIGINATOR     = 

OBJECT_NAME    = STARLINK-37001
OBJECT_ID      = 2026-059K
CENTER_NAME    = EARTH
REF_FRAME      = TEME
TIME_SYSTEM    = UTC
MEAN_ELEMENT_THEORY = SGP/SGP4

EPOCH          = 2026-04-03T11:14:12.339168
MEAN_MOTION    = 15.80865083
ECCENTRICITY   = .000082
INCLINATION    = 53.1599
RA_OF_ASC_NODE = 238.6310
ARG_OF_PERICENTER = 99.7271
MEAN_ANOMALY   = 260.3844

EPHEMERIS_TYPE = 0
CLASSIFICATION_TYPE = U
NORAD_CAT_ID   = 68330
ELEMENT_SET_NO = 999
REV_AT_EPOCH   = 189
BSTAR          = .14582E-2
MEAN_MOTION_DOT = .297121E-2
MEAN_MOTION_DDOT = 0

CCSDS_OMM_VERS = 2.0
CREATION_DATE  = 
ORIGINATOR     = 

OBJECT_NAME    = STARLINK-36932
OBJECT_ID      = 2026-059L
CENTER_NAME    = EARTH
REF_FRAME      = TEME
TIME_SYSTEM    = UTC
MEAN_ELEMENT_THEORY = SGP/SGP4

EPOCH          = 2026-04-03T11:13:07.792320
MEAN_MOTION    = 15.80910723
ECCENTRICITY   = .0002459
INCLINATION    = 53.1595
RA_OF_ASC_NODE = 238.6253
ARG_OF_PERICENTER = 36.1791
MEAN_ANOMALY   = 323.9398

EPHEMERIS_TYPE = 0
CLASSIFICATION_TYPE = U
NORAD_CAT_ID   = 68331
ELEMENT_SET_NO = 999
REV_AT_EPOCH   = 189
BSTAR          = .1841E-2
MEAN_MOTION_DOT = .379744E-2
MEAN_MOTION_DDOT = 0

CCSDS_OMM_VERS = 2.0
CREATION_DATE  = 
ORIGINATOR     = 

OBJECT_NAME    = STARLINK-37205
OBJECT_ID      = 2026-059M
CENTER_NAME    = EARTH
REF_FRAME      = TEME
TIME_SYSTEM    = UTC
MEAN_ELEMENT_THEORY = SGP/SGP4

EPOCH          = 2026-04-03T12:43:05.482848
MEAN_MOTION    = 15.80814627
ECCENTRICITY   = .0001959
INCLINATION    = 53.1598
RA_OF_ASC_NODE = 238.3041
ARG_OF_PERICENTER = 45.3380
MEAN_ANOMALY   = 314.7803

EPHEMERIS_TYPE = 0
CLASSIFICATION_TYPE = U
NORAD_CAT_ID   = 68332
ELEMENT_SET_NO = 999
REV_AT_EPOCH   = 190
BSTAR          = .26987E-2
MEAN_MOTION_DOT = .566893E-2
MEAN_MOTION_DDOT = 0

CCSDS_OMM_VERS = 2.0
CREATION_DATE  = 
ORIGINATOR     = 

OBJECT_NAME    = STARLINK-37180
OBJECT_ID      = 2026-059N
CENTER_NAME    = EARTH
REF_FRAME      = TEME
TIME_SYSTEM    = UTC
MEAN_ELEMENT_THEORY = SGP/SGP4

EPOCH          = 2026-04-03T12:42:00.642240
MEAN_MOTION    = 15.80842330
ECCENTRICITY   = .0000954
INCLINATION    = 53.1604
RA_OF_ASC_NODE = 238.2989
ARG_OF_PERICENTER = 105.0057
MEAN_ANOMALY   = 255.1071

EPHEMERIS_TYPE = 0
CLASSIFICATION_TYPE = U
NORAD_CAT_ID   = 68333
ELEMENT_SET_NO = 999
REV_AT_EPOCH   = 190
BSTAR          = .11779E-2
MEAN_MOTION_DOT = .237957E-2
MEAN_MOTION_DDOT = 0

CCSDS_OMM_VERS = 2.0
CREATION_DATE  = 
ORIGINATOR     = 

OBJECT_NAME    = STARLINK-37191
OBJECT_ID      = 2026-059P
CENTER_NAME    = EARTH
REF_FRAME      = TEME
TIME_SYSTEM    = UTC
MEAN_ELEMENT_THEORY = SGP/SGP4

EPOCH          = 2026-04-03T12:40:55.767072
MEAN_MOTION    = 15.80818232
ECCENTRICITY   = .0001196
INCLINATION    = 53.1600
RA_OF_ASC_NODE = 238.2941
ARG_OF_PERICENTER = 152.6365
MEAN_ANOMALY   = 207.4721

EPHEMERIS_TYPE = 0
CLASSIFICATION_TYPE = U
NORAD_CAT_ID   = 68334
ELEMENT_SET_NO = 999
REV_AT_EPOCH   = 190
BSTAR          = .24013E-2
MEAN_MOTION_DOT = .50053E-2
MEAN_MOTION_DDOT = 0

CCSDS_OMM_VERS = 2.0
CREATION_DATE  = 
ORIGINATOR     = 

OBJECT_NAME    = STARLINK-37217
OBJECT_ID      = 2026-059Q
CENTER_NAME    = EARTH
REF_FRAME      = TEME
TIME_SYSTEM    = UTC
MEAN_ELEMENT_THEORY = SGP/SGP4

EPOCH          = 2026-04-03T11:08:48.191424
MEAN_MOTION    = 15.80796664
ECCENTRICITY   = .0000841
INCLINATION    = 53.1603
RA_OF_ASC_NODE = 238.6056
ARG_OF_PERICENTER = 103.6260
MEAN_ANOMALY   = 256.4856

EPHEMERIS_TYPE = 0
CLASSIFICATION_TYPE = U
NORAD_CAT_ID   = 68335
ELEMENT_SET_NO = 999
REV_AT_EPOCH   = 189
BSTAR          = .87977E-3
MEAN_MOTION_DOT = .175898E-2
MEAN_MOTION_DDOT = 0

CCSDS_OMM_VERS = 2.0
CREATION_DATE  = 
ORIGINATOR     = 

OBJECT_NAME    = STARLINK-37143
OBJECT_ID      = 2026-059R
CENTER_NAME    = EARTH
REF_FRAME      = TEME
TIME_SYSTEM    = UTC
MEAN_ELEMENT_THEORY = SGP/SGP4

EPOCH          = 2026-04-03T11:07:43.380192
MEAN_MOTION    = 15.80883348
ECCENTRICITY   = .0001101
INCLINATION    = 53.1592
RA_OF_ASC_NODE = 238.6009
ARG_OF_PERICENTER = 123.8127
MEAN_ANOMALY   = 236.3001

EPHEMERIS_TYPE = 0
CLASSIFICATION_TYPE = U
NORAD_CAT_ID   = 68336
ELEMENT_SET_NO = 999
REV_AT_EPOCH   = 189
BSTAR          = .1653E-2
MEAN_MOTION_DOT = .338842E-2
MEAN_MOTION_DDOT = 0

